start=new Date('2023-06-29T00:00:00.000Z').valueOf();
sats=[{"DECAY_DATE":null,"MEAN_ELEMENT_THEORY":"SGP4","RA_OF_ASC_NODE":"226.8613","REF_FRAME":"TEME","GP_ID":"234596305","SITE":"AFETR","OBJECT_ID":"2021-044F","MEAN_MOTION_DDOT":"0.0000000000000","MEAN_ANOMALY":"262.1137","CLASSIFICATION_TYPE":"U","OBJECT_TYPE":"PAYLOAD","PERIOD":"95.592","SEMIMAJOR_AXIS":"6925.360","COUNTRY_CODE":"US","EPOCH":"2023-06-27T22:18:28.944288","INCLINATION":"53.0527","MEAN_MOTION_DOT":"0.00002151","OBJECT_NAME":"STARLINK-2704","PERIAPSIS":"546.393","RCS_SIZE":"LARGE","FILE":"3944576","NORAD_CAT_ID":"48643","TIME_SYSTEM":"UTC","EPHEMERIS_TYPE":"0","MEAN_MOTION":"15.06396276","BSTAR":"0.00016326000000","LAUNCH_DATE":"2021-05-26","ELEMENT_SET_NO":"999","REV_AT_EPOCH":"11603","ECCENTRICITY":"0.00012020","TLE_LINE2":"2 48643  53.0527 226.8613 0001202  97.9988 262.1137 15.06396276116030","CENTER_NAME":"EARTH","APOAPSIS":"548.057","TLE_LINE1":"1 48643U 21044F   23178.92950167  .00002151  00000-0  16326-3 0  9996","ARG_OF_PERICENTER":"97.9988"},{"ECCENTRICITY":"0.00009590","TLE_LINE2":"2 48644  53.0536 224.7955 0000959  85.8534 274.2565 15.06393960116045","LAUNCH_DATE":"2021-05-26","ELEMENT_SET_NO":"999","REV_AT_EPOCH":"11604","CENTER_NAME":"EARTH","TLE_LINE1":"1 48644U 21044G   23179.39119355  .00000615  00000-0  60199-4 0  9996","ARG_OF_PERICENTER":"85.8534","APOAPSIS":"547.896","RCS_SIZE":"LARGE","FILE":"3944849","PERIAPSIS":"546.568","MEAN_MOTION":"15.06393960","BSTAR":"0.00006019900000","NORAD_CAT_ID":"48644","TIME_SYSTEM":"UTC","EPHEMERIS_TYPE":"0","PERIOD":"95.593","SEMIMAJOR_AXIS":"6925.367","OBJECT_TYPE":"PAYLOAD","CLASSIFICATION_TYPE":"U","MEAN_MOTION_DOT":"0.00000615","INCLINATION":"53.0536","OBJECT_NAME":"STARLINK-2695","COUNTRY_CODE":"US","EPOCH":"2023-06-28T09:23:19.122720","RA_OF_ASC_NODE":"224.7955","MEAN_ELEMENT_THEORY":"SGP4","REF_FRAME":"TEME","DECAY_DATE":null,"SITE":"AFETR","GP_ID":"234603437","MEAN_ANOMALY":"274.2565","MEAN_MOTION_DDOT":"0.0000000000000","OBJECT_ID":"2021-044G"},{"CENTER_NAME":"EARTH","APOAPSIS":"547.987","TLE_LINE1":"1 48645U 21044H   23179.12211835  .00003049  00000-0  22356-3 0  9990","ARG_OF_PERICENTER":"88.6773","ECCENTRICITY":"0.00010710","TLE_LINE2":"2 48645  53.0527 225.9993 0001071  88.6773 271.4339 15.06389661116066","ELEMENT_SET_NO":"999","LAUNCH_DATE":"2021-05-26","REV_AT_EPOCH":"11606","MEAN_MOTION":"15.06389661","BSTAR":"0.00022356000000","NORAD_CAT_ID":"48645","EPHEMERIS_TYPE":"0","TIME_SYSTEM":"UTC","FILE":"3944616","RCS_SIZE":"LARGE","PERIAPSIS":"546.504","OBJECT_NAME":"STARLINK-2733","MEAN_MOTION_DOT":"0.00003049","INCLINATION":"53.0527","COUNTRY_CODE":"US","EPOCH":"2023-06-28T02:55:51.025440","OBJECT_TYPE":"PAYLOAD","PERIOD":"95.593","SEMIMAJOR_AXIS":"6925.380","CLASSIFICATION_TYPE":"U","GP_ID":"234597084","SITE":"AFETR","OBJECT_ID":"2021-044H","MEAN_MOTION_DDOT":"0.0000000000000","MEAN_ANOMALY":"271.4339","MEAN_ELEMENT_THEORY":"SGP4","RA_OF_ASC_NODE":"225.9993","REF_FRAME":"TEME","DECAY_DATE":null},{"OBJECT_ID":"2021-044J","MEAN_MOTION_DDOT":"0.0000000000000","MEAN_ANOMALY":"274.7979","GP_ID":"234596702","SITE":"AFETR","DECAY_DATE":null,"REF_FRAME":"TEME","MEAN_ELEMENT_THEORY":"SGP4","RA_OF_ASC_NODE":"226.0168","EPOCH":"2023-06-28T02:50:32.415936","COUNTRY_CODE":"US","MEAN_MOTION_DOT":"0.00003441","OBJECT_NAME":"STARLINK-2732","INCLINATION":"53.0522","CLASSIFICATION_TYPE":"U","OBJECT_TYPE":"PAYLOAD","PERIOD":"95.593","SEMIMAJOR_AXIS":"6925.366","TIME_SYSTEM":"UTC","EPHEMERIS_TYPE":"0","NORAD_CAT_ID":"48646","BSTAR":"0.00024980000000","MEAN_MOTION":"15.06394158","PERIAPSIS":"546.474","FILE":"3944605","RCS_SIZE":"LARGE","APOAPSIS":"547.989","ARG_OF_PERICENTER":"85.3135","TLE_LINE1":"1 48646U 21044J   23179.11843074  .00003441  00000-0  24980-3 0  9997","CENTER_NAME":"EARTH","REV_AT_EPOCH":"11606","LAUNCH_DATE":"2021-05-26","ELEMENT_SET_NO":"999","ECCENTRICITY":"0.00010940","TLE_LINE2":"2 48646  53.0522 226.0168 0001094  85.3135 274.7979 15.06394158116062"},{"PERIAPSIS":"546.553","FILE":"3944605","RCS_SIZE":"LARGE","NORAD_CAT_ID":"48647","TIME_SYSTEM":"UTC","EPHEMERIS_TYPE":"0","MEAN_MOTION":"15.06395025","BSTAR":"0.00008408600000","LAUNCH_DATE":"2021-05-26","ELEMENT_SET_NO":"999","REV_AT_EPOCH":"11606","ECCENTRICITY":"0.00009760","TLE_LINE2":"2 48647  53.0522 226.0342 0000976  78.4090 281.7008 15.06395025116063","CENTER_NAME":"EARTH","TLE_LINE1":"1 48647U 21044K   23179.11474559  .00000971  00000-0  84086-4 0  9995","ARG_OF_PERICENTER":"78.4090","APOAPSIS":"547.905","DECAY_DATE":null,"RA_OF_ASC_NODE":"226.0342","MEAN_ELEMENT_THEORY":"SGP4","REF_FRAME":"TEME","SITE":"AFETR","GP_ID":"234597196","MEAN_ANOMALY":"281.7008","MEAN_MOTION_DDOT":"0.0000000000000","OBJECT_ID":"2021-044K","CLASSIFICATION_TYPE":"U","SEMIMAJOR_AXIS":"6925.364","PERIOD":"95.592","OBJECT_TYPE":"PAYLOAD","COUNTRY_CODE":"US","EPOCH":"2023-06-28T02:45:14.018976","MEAN_MOTION_DOT":"0.00000971","OBJECT_NAME":"STARLINK-2691","INCLINATION":"53.0522"},{"FILE":"3944618","RCS_SIZE":"LARGE","PERIAPSIS":"546.505","BSTAR":"0.00025991000000","MEAN_MOTION":"15.06393935","TIME_SYSTEM":"UTC","EPHEMERIS_TYPE":"0","NORAD_CAT_ID":"48648","TLE_LINE2":"2 48648  53.0520 227.3224 0001050  87.9255 272.1854 15.06393935115966","ECCENTRICITY":"0.00010500","REV_AT_EPOCH":"11596","ELEMENT_SET_NO":"999","LAUNCH_DATE":"2021-05-26","TLE_LINE1":"1 48648U 21044L   23178.86412651  .00003591  00000-0  25991-3 0  9992","ARG_OF_PERICENTER":"87.9255","APOAPSIS":"547.959","CENTER_NAME":"EARTH","REF_FRAME":"TEME","RA_OF_ASC_NODE":"227.3224","MEAN_ELEMENT_THEORY":"SGP4","DECAY_DATE":null,"MEAN_ANOMALY":"272.1854","MEAN_MOTION_DDOT":"0.0000000000000","OBJECT_ID":"2021-044L","SITE":"AFETR","GP_ID":"234597262","SEMIMAJOR_AXIS":"6925.367","PERIOD":"95.593","OBJECT_TYPE":"PAYLOAD","CLASSIFICATION_TYPE":"U","OBJECT_NAME":"STARLINK-2521","MEAN_MOTION_DOT":"0.00003591","INCLINATION":"53.0520","EPOCH":"2023-06-27T20:44:20.530464","COUNTRY_CODE":"US"},{"GP_ID":"234603114","SITE":"AFETR","OBJECT_ID":"2021-044M","MEAN_MOTION_DDOT":"0.0000000000000","MEAN_ANOMALY":"270.3067","DECAY_DATE":null,"MEAN_ELEMENT_THEORY":"SGP4","RA_OF_ASC_NODE":"225.1579","REF_FRAME":"TEME","COUNTRY_CODE":"US","EPOCH":"2023-06-28T07:26:33.077184","INCLINATION":"53.0529","MEAN_MOTION_DOT":"0.00004041","OBJECT_NAME":"STARLINK-2673","CLASSIFICATION_TYPE":"U","OBJECT_TYPE":"PAYLOAD","SEMIMAJOR_AXIS":"6925.365","PERIOD":"95.592","NORAD_CAT_ID":"48649","TIME_SYSTEM":"UTC","EPHEMERIS_TYPE":"0","MEAN_MOTION":"15.06394592","BSTAR":"0.00029006000000","PERIAPSIS":"546.449","FILE":"3944861","RCS_SIZE":"LARGE","CENTER_NAME":"EARTH","APOAPSIS":"548.011","TLE_LINE1":"1 48649U 21044M   23179.31010506  .00004041  00000-0  29006-3 0  9999","ARG_OF_PERICENTER":"89.8051","ELEMENT_SET_NO":"999","LAUNCH_DATE":"2021-05-26","REV_AT_EPOCH":"11602","TLE_LINE2":"2 48649  53.0529 225.1579 0001128  89.8051 270.3067 15.06394592116020","ECCENTRICITY":"0.00011280"},{"CENTER_NAME":"EARTH","ARG_OF_PERICENTER":"93.2551","TLE_LINE1":"1 48650U 21044N   23179.37276277 -.00000179  00000-0  68743-5 0  9998","APOAPSIS":"547.956","TLE_LINE2":"2 48650  53.0528 224.8821 0001020  93.2551 266.8554 15.06388139116034","ECCENTRICITY":"0.00010200","ELEMENT_SET_NO":"999","LAUNCH_DATE":"2021-05-26","REV_AT_EPOCH":"11603","MEAN_MOTION":"15.06388139","BSTAR":"0.00000687430000","NORAD_CAT_ID":"48650","TIME_SYSTEM":"UTC","EPHEMERIS_TYPE":"0","RCS_SIZE":"LARGE","FILE":"3944861","PERIAPSIS":"546.544","MEAN_MOTION_DOT":"-0.00000179","OBJECT_NAME":"STARLINK-2672","INCLINATION":"53.0528","COUNTRY_CODE":"US","EPOCH":"2023-06-28T08:56:46.703328","PERIOD":"95.593","SEMIMAJOR_AXIS":"6925.385","OBJECT_TYPE":"PAYLOAD","CLASSIFICATION_TYPE":"U","SITE":"AFETR","GP_ID":"234603610","MEAN_ANOMALY":"266.8554","OBJECT_ID":"2021-044N","MEAN_MOTION_DDOT":"0.0000000000000","RA_OF_ASC_NODE":"224.8821","MEAN_ELEMENT_THEORY":"SGP4","REF_FRAME":"TEME","DECAY_DATE":null},{"MEAN_ANOMALY":"259.4514","OBJECT_ID":"2021-044P","MEAN_MOTION_DDOT":"0.0000000000000","SITE":"AFETR","GP_ID":"234607092","DECAY_DATE":null,"REF_FRAME":"TEME","RA_OF_ASC_NODE":"224.8936","MEAN_ELEMENT_THEORY":"SGP4","EPOCH":"2023-06-28T08:51:28.691712","COUNTRY_CODE":"US","MEAN_MOTION_DOT":"0.00002331","OBJECT_NAME":"STARLINK-2731","INCLINATION":"53.0531","CLASSIFICATION_TYPE":"U","PERIOD":"95.593","SEMIMAJOR_AXIS":"6925.372","OBJECT_TYPE":"PAYLOAD","EPHEMERIS_TYPE":"0","TIME_SYSTEM":"UTC","NORAD_CAT_ID":"48651","BSTAR":"0.00017536000000","MEAN_MOTION":"15.06392357","PERIAPSIS":"546.470","RCS_SIZE":"LARGE","FILE":"3945002","ARG_OF_PERICENTER":"100.6600","TLE_LINE1":"1 48651U 21044P   23179.36908208  .00002331  00000-0  17536-3 0  9997","APOAPSIS":"548.004","CENTER_NAME":"EARTH","REV_AT_EPOCH":"11603","ELEMENT_SET_NO":"999","LAUNCH_DATE":"2021-05-26","ECCENTRICITY":"0.00011070","TLE_LINE2":"2 48651  53.0531 224.8936 0001107 100.6600 259.4514 15.06392357116031"},{"DECAY_DATE":null,"MEAN_ELEMENT_THEORY":"SGP4","RA_OF_ASC_NODE":"225.8075","REF_FRAME":"TEME","GP_ID":"234597324","SITE":"AFETR","OBJECT_ID":"2021-044Q","MEAN_MOTION_DDOT":"0.0000000000000","MEAN_ANOMALY":"281.2629","CLASSIFICATION_TYPE":"U","OBJECT_TYPE":"PAYLOAD","SEMIMAJOR_AXIS":"6925.371","PERIOD":"95.593","COUNTRY_CODE":"US","EPOCH":"2023-06-28T03:59:32.912160","INCLINATION":"53.0531","MEAN_MOTION_DOT":"0.00000872","OBJECT_NAME":"STARLINK-2727","PERIAPSIS":"546.330","RCS_SIZE":"LARGE","FILE":"3944619","NORAD_CAT_ID":"48652","EPHEMERIS_TYPE":"0","TIME_SYSTEM":"UTC","MEAN_MOTION":"15.06392569","BSTAR":"0.00007744900000","LAUNCH_DATE":"2021-05-26","ELEMENT_SET_NO":"999","REV_AT_EPOCH":"11600","TLE_LINE2":"2 48652  53.0531 225.8075 0001308  78.8507 281.2629 15.06392569116004","ECCENTRICITY":"0.00013080","CENTER_NAME":"EARTH","APOAPSIS":"548.142","TLE_LINE1":"1 48652U 21044Q   23179.16635315  .00000872  00000-0  77449-4 0  9990","ARG_OF_PERICENTER":"78.8507"}];
